CCSDS_OMM_VERS = 2.0
CREATION_DATE  = 
ORIGINATOR     = 

OBJECT_NAME    = IDEFIX & ARIANE 42P R/B
OBJECT_ID      = 2002-021B
CENTER_NAME    = EARTH
REF_FRAME      = TEME
TIME_SYSTEM    = UTC
MEAN_ELEMENT_THEORY = SGP/SGP4

EPOCH          = 2025-12-29T07:04:39.366912
MEAN_MOTION    = 14.30963648
ECCENTRICITY   = .00126198
INCLINATION    = 98.5805
RA_OF_ASC_NODE = 297.7725
ARG_OF_PERICENTER = 38.8422
MEAN_ANOMALY   = 321.3666

EPHEMERIS_TYPE = 0
CLASSIFICATION_TYPE = U
NORAD_CAT_ID   = 27422
ELEMENT_SET_NO = 999
REV_AT_EPOCH   = 23395
BSTAR          = .2062146E-3
MEAN_MOTION_DOT = .499E-5
MEAN_MOTION_DDOT = 0

CCSDS_OMM_VERS = 2.0
CREATION_DATE  = 
ORIGINATOR     = 

OBJECT_NAME    = AQUA
OBJECT_ID      = 2002-022A
CENTER_NAME    = EARTH
REF_FRAME      = TEME
TIME_SYSTEM    = UTC
MEAN_ELEMENT_THEORY = SGP/SGP4

EPOCH          = 2025-12-28T20:13:05.896704
MEAN_MOTION    = 14.61770338
ECCENTRICITY   = .00018789
INCLINATION    = 98.4059
RA_OF_ASC_NODE = 323.9850
ARG_OF_PERICENTER = 97.4017
MEAN_ANOMALY   = 318.4487

EPHEMERIS_TYPE = 0
CLASSIFICATION_TYPE = U
NORAD_CAT_ID   = 27424
ELEMENT_SET_NO = 999
REV_AT_EPOCH   = 25838
BSTAR          = .29423776E-3
MEAN_MOTION_DOT = .1419E-4
MEAN_MOTION_DDOT = 0

CCSDS_OMM_VERS = 2.0
CREATION_DATE  = 
ORIGINATOR     = 

OBJECT_NAME    = CZ-4B R/B
OBJECT_ID      = 2002-024C
CENTER_NAME    = EARTH
REF_FRAME      = TEME
TIME_SYSTEM    = UTC
MEAN_ELEMENT_THEORY = SGP/SGP4

EPOCH          = 2025-12-29T03:00:33.163776
MEAN_MOTION    = 14.14531499
ECCENTRICITY   = .00495264
INCLINATION    = 98.8976
RA_OF_ASC_NODE = 51.8381
ARG_OF_PERICENTER = 222.5932
MEAN_ANOMALY   = 191.9907

EPHEMERIS_TYPE = 0
CLASSIFICATION_TYPE = U
NORAD_CAT_ID   = 27432
ELEMENT_SET_NO = 999
REV_AT_EPOCH   = 21926
BSTAR          = .71407275E-4
MEAN_MOTION_DOT = .94E-6
MEAN_MOTION_DDOT = 0

CCSDS_OMM_VERS = 2.0
CREATION_DATE  = 
ORIGINATOR     = 

OBJECT_NAME    = MIDORI II (ADEOS-II)
OBJECT_ID      = 2002-056A
CENTER_NAME    = EARTH
REF_FRAME      = TEME
TIME_SYSTEM    = UTC
MEAN_ELEMENT_THEORY = SGP/SGP4

EPOCH          = 2025-12-28T19:36:58.262400
MEAN_MOTION    = 14.29217740
ECCENTRICITY   = .00010048
INCLINATION    = 98.7658
RA_OF_ASC_NODE = 315.8598
ARG_OF_PERICENTER = 141.9789
MEAN_ANOMALY   = 218.1464

EPHEMERIS_TYPE = 0
CLASSIFICATION_TYPE = U
NORAD_CAT_ID   = 27597
ELEMENT_SET_NO = 999
REV_AT_EPOCH   = 20017
BSTAR          = .19172136E-3
MEAN_MOTION_DOT = .442E-5
MEAN_MOTION_DDOT = 0

CCSDS_OMM_VERS = 2.0
CREATION_DATE  = 
ORIGINATOR     = 

OBJECT_NAME    = H-2A R/B
OBJECT_ID      = 2002-056E
CENTER_NAME    = EARTH
REF_FRAME      = TEME
TIME_SYSTEM    = UTC
MEAN_ELEMENT_THEORY = SGP/SGP4

EPOCH          = 2025-12-28T20:53:45.253824
MEAN_MOTION    = 14.33691358
ECCENTRICITY   = .00706773
INCLINATION    = 98.3088
RA_OF_ASC_NODE = 320.9871
ARG_OF_PERICENTER = 13.6204
MEAN_ANOMALY   = 40.0516

EPHEMERIS_TYPE = 0
CLASSIFICATION_TYPE = U
NORAD_CAT_ID   = 27601
ELEMENT_SET_NO = 999
REV_AT_EPOCH   = 20396
BSTAR          = .20823525E-3
MEAN_MOTION_DOT = .552E-5
MEAN_MOTION_DDOT = 0

CCSDS_OMM_VERS = 2.0
CREATION_DATE  = 
ORIGINATOR     = 

OBJECT_NAME    = CZ-4B R/B
OBJECT_ID      = 2003-049C
CENTER_NAME    = EARTH
REF_FRAME      = TEME
TIME_SYSTEM    = UTC
MEAN_ELEMENT_THEORY = SGP/SGP4

EPOCH          = 2025-12-28T23:07:27.602688
MEAN_MOTION    = 14.54926442
ECCENTRICITY   = .00493809
INCLINATION    = 98.6800
RA_OF_ASC_NODE = 350.1412
ARG_OF_PERICENTER = 87.5761
MEAN_ANOMALY   = 273.1087

EPHEMERIS_TYPE = 0
CLASSIFICATION_TYPE = U
NORAD_CAT_ID   = 28059
ELEMENT_SET_NO = 999
REV_AT_EPOCH   = 17631
BSTAR          = .16687765E-3
MEAN_MOTION_DOT = .678E-5
MEAN_MOTION_DDOT = 0

CCSDS_OMM_VERS = 2.0
CREATION_DATE  = 
ORIGINATOR     = 

OBJECT_NAME    = CZ-2C R/B
OBJECT_ID      = 2004-012C
CENTER_NAME    = EARTH
REF_FRAME      = TEME
TIME_SYSTEM    = UTC
MEAN_ELEMENT_THEORY = SGP/SGP4

EPOCH          = 2025-12-29T03:17:23.082144
MEAN_MOTION    = 15.56812121
ECCENTRICITY   = .00166721
INCLINATION    = 97.7393
RA_OF_ASC_NODE = 57.1257
ARG_OF_PERICENTER = 207.0651
MEAN_ANOMALY   = 152.9736

EPHEMERIS_TYPE = 0
CLASSIFICATION_TYPE = U
NORAD_CAT_ID   = 28222
ELEMENT_SET_NO = 999
REV_AT_EPOCH   = 19327
BSTAR          = .7794993E-3
MEAN_MOTION_DOT = .56403E-3
MEAN_MOTION_DDOT = 0

CCSDS_OMM_VERS = 2.0
CREATION_DATE  = 
ORIGINATOR     = 

OBJECT_NAME    = SL-16 R/B
OBJECT_ID      = 2004-021B
CENTER_NAME    = EARTH
REF_FRAME      = TEME
TIME_SYSTEM    = UTC
MEAN_ELEMENT_THEORY = SGP/SGP4

EPOCH          = 2025-12-29T07:26:15.862848
MEAN_MOTION    = 14.14582374
ECCENTRICITY   = .0004379
INCLINATION    = 71.0005
RA_OF_ASC_NODE = 20.1910
ARG_OF_PERICENTER = 171.8976
MEAN_ANOMALY   = 188.2218

EPHEMERIS_TYPE = 0
CLASSIFICATION_TYPE = U
NORAD_CAT_ID   = 28353
ELEMENT_SET_NO = 999
REV_AT_EPOCH   = 11288
BSTAR          = .20388411E-3
MEAN_MOTION_DOT = .344E-5
MEAN_MOTION_DDOT = 0

CCSDS_OMM_VERS = 2.0
CREATION_DATE  = 
ORIGINATOR     = 

OBJECT_NAME    = CZ-4B R/B
OBJECT_ID      = 2004-035C
CENTER_NAME    = EARTH
REF_FRAME      = TEME
TIME_SYSTEM    = UTC
MEAN_ELEMENT_THEORY = SGP/SGP4

EPOCH          = 2025-12-29T01:40:10.226784
MEAN_MOTION    = 15.27652393
ECCENTRICITY   = .00320242
INCLINATION    = 97.3600
RA_OF_ASC_NODE = 33.1971
ARG_OF_PERICENTER = 216.7956
MEAN_ANOMALY   = 143.1086

EPHEMERIS_TYPE = 0
CLASSIFICATION_TYPE = U
NORAD_CAT_ID   = 28415
ELEMENT_SET_NO = 999
REV_AT_EPOCH   = 16912
BSTAR          = .41814141E-3
MEAN_MOTION_DOT = .11403E-3
MEAN_MOTION_DDOT = 0

CCSDS_OMM_VERS = 2.0
CREATION_DATE  = 
ORIGINATOR     = 

OBJECT_NAME    = CZ-2C R/B
OBJECT_ID      = 2004-046B
CENTER_NAME    = EARTH
REF_FRAME      = TEME
TIME_SYSTEM    = UTC
MEAN_ELEMENT_THEORY = SGP/SGP4

EPOCH          = 2025-12-29T05:26:18.391200
MEAN_MOTION    = 14.26952079
ECCENTRICITY   = .01396446
INCLINATION    = 98.1998
RA_OF_ASC_NODE = 277.5807
ARG_OF_PERICENTER = 3.7646
MEAN_ANOMALY   = 356.4552

EPHEMERIS_TYPE = 0
CLASSIFICATION_TYPE = U
NORAD_CAT_ID   = 28480
ELEMENT_SET_NO = 999
REV_AT_EPOCH   = 9845
BSTAR          = .18211136E-3
MEAN_MOTION_DOT = .449E-5
MEAN_MOTION_DDOT = 0

CCSDS_OMM_VERS = 2.0
CREATION_DATE  = 
ORIGINATOR     = 

OBJECT_NAME    = ARIANE 5 R/B
OBJECT_ID      = 2004-049H
CENTER_NAME    = EARTH
REF_FRAME      = TEME
TIME_SYSTEM    = UTC
MEAN_ELEMENT_THEORY = SGP/SGP4

EPOCH          = 2025-12-28T23:00:09.758592
MEAN_MOTION    = 14.85059110
ECCENTRICITY   = .00836702
INCLINATION    = 98.2533
RA_OF_ASC_NODE = 163.8226
ARG_OF_PERICENTER = 219.7316
MEAN_ANOMALY   = 139.7751

EPHEMERIS_TYPE = 0
CLASSIFICATION_TYPE = U
NORAD_CAT_ID   = 28499
ELEMENT_SET_NO = 999
REV_AT_EPOCH   = 13529
BSTAR          = .22932818E-3
MEAN_MOTION_DOT = .202E-4
MEAN_MOTION_DDOT = 0

CCSDS_OMM_VERS = 2.0
CREATION_DATE  = 
ORIGINATOR     = 

OBJECT_NAME    = CZ-2D R/B
OBJECT_ID      = 2005-024B
CENTER_NAME    = EARTH
REF_FRAME      = TEME
TIME_SYSTEM    = UTC
MEAN_ELEMENT_THEORY = SGP/SGP4

EPOCH          = 2025-12-28T18:13:22.722528
MEAN_MOTION    = 15.54167228
ECCENTRICITY   = .00031857
INCLINATION    = 97.3634
RA_OF_ASC_NODE = 10.6363
ARG_OF_PERICENTER = 293.0521
MEAN_ANOMALY   = 67.0397

EPHEMERIS_TYPE = 0
CLASSIFICATION_TYPE = U
NORAD_CAT_ID   = 28738
ELEMENT_SET_NO = 999
REV_AT_EPOCH   = 12874
BSTAR          = .62639412E-3
MEAN_MOTION_DOT = .40793E-3
MEAN_MOTION_DDOT = 0

